start=new Date('2022-10-07T00:00:00.000Z').valueOf();
sats=[{"PERIOD":"95.437","OBJECT_NAME":"STARLINK-4208","PERIAPSIS":"538.354","MEAN_ANOMALY":"55.0769","ECCENTRICITY":"0.00019680","SEMIMAJOR_AXIS":"6917.850","BSTAR":"0.00030800000000","OBJECT_TYPE":"PAYLOAD","TLE_LINE1":"1 52844U 22062Q   22280.00001157  .00004618  00000-0  30800-3 0  9996","COUNTRY_CODE":"US","SITE":"AFETR","EPOCH":"2022-10-07T00:00:00.999648","GP_ID":"214333561","EPHEMERIS_TYPE":"0","FILE":"3594496","CLASSIFICATION_TYPE":"U","MEAN_ELEMENT_THEORY":"SGP4","MEAN_MOTION_DDOT":"0.0000000000000","RA_OF_ASC_NODE":"244.1982","INCLINATION":"53.2194","TLE_LINE2":"2 52844  53.2194 244.1982 0001968  32.4128  55.0769 15.08849810 17614","NORAD_CAT_ID":"52844","OBJECT_ID":"2022-062Q","REV_AT_EPOCH":"1761","MEAN_MOTION_DOT":"0.00004618","REF_FRAME":"TEME","MEAN_MOTION":"15.08849810","TIME_SYSTEM":"UTC","RCS_SIZE":"LARGE","APOAPSIS":"541.077","ELEMENT_SET_NO":"999","CENTER_NAME":"EARTH","LAUNCH_DATE":"2022-06-17","ARG_OF_PERICENTER":"32.4128","DECAY_DATE":null},{"OBJECT_NAME":"STARLINK-4168","PERIAPSIS":"538.466","MEAN_ANOMALY":"139.3760","ECCENTRICITY":"0.00018030","SEMIMAJOR_AXIS":"6917.848","OBJECT_TYPE":"PAYLOAD","BSTAR":"0.00026547000000","TLE_LINE1":"1 52845U 22062R   22280.00001157  .00003941  00000-0  26547-3 0  9998","PERIOD":"95.437","FILE":"3594496","CLASSIFICATION_TYPE":"U","COUNTRY_CODE":"US","SITE":"AFETR","EPOCH":"2022-10-07T00:00:00.999648","GP_ID":"214334057","EPHEMERIS_TYPE":"0","REV_AT_EPOCH":"1762","MEAN_MOTION_DOT":"0.00003941","REF_FRAME":"TEME","MEAN_MOTION":"15.08850560","TIME_SYSTEM":"UTC","RCS_SIZE":"LARGE","MEAN_ELEMENT_THEORY":"SGP4","MEAN_MOTION_DDOT":"0.0000000000000","INCLINATION":"53.2181","RA_OF_ASC_NODE":"244.1967","TLE_LINE2":"2 52845  53.2181 244.1967 0001803  42.9049 139.3760 15.08850560 17622","NORAD_CAT_ID":"52845","OBJECT_ID":"2022-062R","LAUNCH_DATE":"2022-06-17","ARG_OF_PERICENTER":"42.9049","DECAY_DATE":null,"APOAPSIS":"540.960","ELEMENT_SET_NO":"999","CENTER_NAME":"EARTH"},{"OBJECT_NAME":"STARLINK-4212","ECCENTRICITY":"0.00020030","PERIAPSIS":"538.325","MEAN_ANOMALY":"102.8841","SEMIMAJOR_AXIS":"6917.845","OBJECT_TYPE":"PAYLOAD","BSTAR":"0.00034106000000","TLE_LINE1":"1 52846U 22062S   22280.00001157  .00005146  00000-0  34106-3 0  9998","PERIOD":"95.437","FILE":"3594496","CLASSIFICATION_TYPE":"U","COUNTRY_CODE":"US","SITE":"AFETR","EPOCH":"2022-10-07T00:00:00.999648","GP_ID":"214333552","EPHEMERIS_TYPE":"0","REV_AT_EPOCH":"1762","MEAN_MOTION_DOT":"0.00005146","REF_FRAME":"TEME","MEAN_MOTION":"15.08851442","RCS_SIZE":"LARGE","TIME_SYSTEM":"UTC","MEAN_MOTION_DDOT":"0.0000000000000","MEAN_ELEMENT_THEORY":"SGP4","INCLINATION":"53.2176","RA_OF_ASC_NODE":"244.1925","NORAD_CAT_ID":"52846","TLE_LINE2":"2 52846  53.2176 244.1925 0002003  44.5890 102.8841 15.08851442 17621","OBJECT_ID":"2022-062S","LAUNCH_DATE":"2022-06-17","ARG_OF_PERICENTER":"44.5890","DECAY_DATE":null,"APOAPSIS":"541.096","ELEMENT_SET_NO":"999","CENTER_NAME":"EARTH"},{"TLE_LINE1":"1 52847U 22062T   22280.00001157  .00005462  00000-0  36085-3 0  9998","SEMIMAJOR_AXIS":"6917.839","OBJECT_TYPE":"PAYLOAD","BSTAR":"0.00036085000000","OBJECT_NAME":"STARLINK-4206","MEAN_ANOMALY":"161.1253","PERIAPSIS":"538.507","ECCENTRICITY":"0.00017300","PERIOD":"95.437","CLASSIFICATION_TYPE":"U","FILE":"3594496","EPHEMERIS_TYPE":"0","GP_ID":"214334061","EPOCH":"2022-10-07T00:00:00.999648","COUNTRY_CODE":"US","SITE":"AFETR","MEAN_MOTION":"15.08853548","RCS_SIZE":"LARGE","TIME_SYSTEM":"UTC","MEAN_MOTION_DOT":"0.00005462","REF_FRAME":"TEME","REV_AT_EPOCH":"1762","OBJECT_ID":"2022-062T","NORAD_CAT_ID":"52847","TLE_LINE2":"2 52847  53.2172 244.1897 0001730  46.3315 161.1253 15.08853548 17628","MEAN_ELEMENT_THEORY":"SGP4","MEAN_MOTION_DDOT":"0.0000000000000","INCLINATION":"53.2172","RA_OF_ASC_NODE":"244.1897","ARG_OF_PERICENTER":"46.3315","DECAY_DATE":null,"LAUNCH_DATE":"2022-06-17","ELEMENT_SET_NO":"999","CENTER_NAME":"EARTH","APOAPSIS":"540.901"},{"TLE_LINE2":"2 52848  53.2187 244.2002 0002371  36.8707  70.6651 15.08829132 17612","NORAD_CAT_ID":"52848","MEAN_MOTION_DDOT":"0.0000000000000","MEAN_ELEMENT_THEORY":"SGP4","INCLINATION":"53.2187","RA_OF_ASC_NODE":"244.2002","OBJECT_ID":"2022-062U","MEAN_MOTION_DOT":"0.00005562","REF_FRAME":"TEME","REV_AT_EPOCH":"1761","MEAN_MOTION":"15.08829132","RCS_SIZE":"LARGE","TIME_SYSTEM":"UTC","CENTER_NAME":"EARTH","ELEMENT_SET_NO":"999","APOAPSIS":"541.419","LAUNCH_DATE":"2022-06-17","ARG_OF_PERICENTER":"36.8707","DECAY_DATE":null,"PERIOD":"95.438","OBJECT_NAME":"STARLINK-4202","MEAN_ANOMALY":"70.6651","PERIAPSIS":"538.138","ECCENTRICITY":"0.00023710","TLE_LINE1":"1 52848U 22062U   22280.00001157  .00005562  00000-0  36740-3 0  9998","SEMIMAJOR_AXIS":"6917.914","OBJECT_TYPE":"PAYLOAD","BSTAR":"0.00036740000000","EPOCH":"2022-10-07T00:00:00.999648","COUNTRY_CODE":"US","SITE":"AFETR","EPHEMERIS_TYPE":"0","GP_ID":"214334067","FILE":"3594502","CLASSIFICATION_TYPE":"U"},{"APOAPSIS":"541.227","ELEMENT_SET_NO":"999","CENTER_NAME":"EARTH","ARG_OF_PERICENTER":"35.5186","DECAY_DATE":null,"LAUNCH_DATE":"2022-06-17","OBJECT_ID":"2022-062V","MEAN_MOTION_DDOT":"0.0000000000000","MEAN_ELEMENT_THEORY":"SGP4","INCLINATION":"53.2146","RA_OF_ASC_NODE":"234.4286","NORAD_CAT_ID":"52849","TLE_LINE2":"2 52849  53.2146 234.4286 0002179  35.5186 275.9501 15.08848565  1300","MEAN_MOTION":"15.08848565","RCS_SIZE":"LARGE","TIME_SYSTEM":"UTC","REV_AT_EPOCH":"130","MEAN_MOTION_DOT":"0.00020418","REF_FRAME":"TEME","GP_ID":"214361673","EPHEMERIS_TYPE":"0","COUNTRY_CODE":"US","SITE":"AFETR","EPOCH":"2022-10-06T22:42:55.000224","CLASSIFICATION_TYPE":"U","FILE":"3594620","PERIOD":"95.437","SEMIMAJOR_AXIS":"6917.854","OBJECT_TYPE":"PAYLOAD","BSTAR":"0.00129690000000","TLE_LINE1":"1 52849U 22062V   22279.94646991  .00020418  00000-0  12969-2 0  9994","OBJECT_NAME":"STARLINK-4197","MEAN_ANOMALY":"275.9501","PERIAPSIS":"538.212","ECCENTRICITY":"0.00021790"},{"COUNTRY_CODE":"US","SITE":"AFETR","EPOCH":"2022-10-07T00:00:00.999648","GP_ID":"214333635","EPHEMERIS_TYPE":"0","FILE":"3594500","CLASSIFICATION_TYPE":"U","PERIOD":"95.437","OBJECT_NAME":"STARLINK-4187","PERIAPSIS":"538.523","MEAN_ANOMALY":"130.0314","ECCENTRICITY":"0.00017120","SEMIMAJOR_AXIS":"6917.842","OBJECT_TYPE":"PAYLOAD","BSTAR":"-0.00121280000000","TLE_LINE1":"1 52850U 22062W   22280.00001157 -.00019545  00000-0 -12128-2 0  9992","APOAPSIS":"540.891","ELEMENT_SET_NO":"999","CENTER_NAME":"EARTH","LAUNCH_DATE":"2022-06-17","ARG_OF_PERICENTER":"57.4434","DECAY_DATE":null,"MEAN_ELEMENT_THEORY":"SGP4","MEAN_MOTION_DDOT":"0.0000000000000","INCLINATION":"53.2160","RA_OF_ASC_NODE":"244.1836","NORAD_CAT_ID":"52850","TLE_LINE2":"2 52850  53.2160 244.1836 0001712  57.4434 130.0314 15.08852601 17629","OBJECT_ID":"2022-062W","REV_AT_EPOCH":"1762","MEAN_MOTION_DOT":"-0.00019545","REF_FRAME":"TEME","MEAN_MOTION":"15.08852601","RCS_SIZE":"LARGE","TIME_SYSTEM":"UTC"},{"ELEMENT_SET_NO":"999","CENTER_NAME":"EARTH","APOAPSIS":"541.029","LAUNCH_DATE":"2022-06-17","DECAY_DATE":null,"ARG_OF_PERICENTER":"40.0823","NORAD_CAT_ID":"52851","TLE_LINE2":"2 52851  53.2157 234.4282 0001934  40.0823 291.3908 15.08857884  1305","INCLINATION":"53.2157","RA_OF_ASC_NODE":"234.4282","MEAN_MOTION_DDOT":"0.0000000000000","MEAN_ELEMENT_THEORY":"SGP4","OBJECT_ID":"2022-062X","REF_FRAME":"TEME","MEAN_MOTION_DOT":"0.00012524","REV_AT_EPOCH":"130","RCS_SIZE":"LARGE","TIME_SYSTEM":"UTC","MEAN_MOTION":"15.08857884","EPOCH":"2022-10-06T22:42:55.000224","SITE":"AFETR","COUNTRY_CODE":"US","EPHEMERIS_TYPE":"0","GP_ID":"214362232","FILE":"3594620","CLASSIFICATION_TYPE":"U","PERIOD":"95.436","PERIAPSIS":"538.353","MEAN_ANOMALY":"291.3908","ECCENTRICITY":"0.00019340","OBJECT_NAME":"STARLINK-3809","TLE_LINE1":"1 52851U 22062X   22279.94646991  .00012524  00000-0  80316-3 0  9998","BSTAR":"0.00080316000000","OBJECT_TYPE":"PAYLOAD","SEMIMAJOR_AXIS":"6917.826"},{"PERIOD":"95.435","SEMIMAJOR_AXIS":"6917.781","BSTAR":"-0.00201370000000","OBJECT_TYPE":"PAYLOAD","TLE_LINE1":"1 52852U 22062Y   22280.00001157 -.00032223  00000-0 -20137-2 0  9991","OBJECT_NAME":"STARLINK-4184","MEAN_ANOMALY":"183.7120","PERIAPSIS":"538.200","ECCENTRICITY":"0.00020890","GP_ID":"214333573","EPHEMERIS_TYPE":"0","COUNTRY_CODE":"US","SITE":"AFETR","EPOCH":"2022-10-07T00:00:00.999648","CLASSIFICATION_TYPE":"U","FILE":"3594502","OBJECT_ID":"2022-062Y","MEAN_ELEMENT_THEORY":"SGP4","MEAN_MOTION_DDOT":"0.0000000000000","INCLINATION":"53.2140","RA_OF_ASC_NODE":"234.1952","NORAD_CAT_ID":"52852","TLE_LINE2":"2 52852  53.2140 234.1952 0002089  38.7373 183.7120 15.08872678 17759","MEAN_MOTION":"15.08872678","TIME_SYSTEM":"UTC","RCS_SIZE":"LARGE","REV_AT_EPOCH":"1775","MEAN_MOTION_DOT":"-0.00032223","REF_FRAME":"TEME","APOAPSIS":"541.091","CENTER_NAME":"EARTH","ELEMENT_SET_NO":"999","ARG_OF_PERICENTER":"38.7373","DECAY_DATE":null,"LAUNCH_DATE":"2022-06-17"},{"TLE_LINE1":"1 52853U 22062Z   22280.00001157  .00004091  00000-0  27490-3 0  9992","BSTAR":"0.00027490000000","OBJECT_TYPE":"PAYLOAD","SEMIMAJOR_AXIS":"6917.851","PERIAPSIS":"538.374","MEAN_ANOMALY":"255.3541","ECCENTRICITY":"0.00019400","OBJECT_NAME":"STARLINK-4189","PERIOD":"95.437","CLASSIFICATION_TYPE":"U","FILE":"3594502","EPHEMERIS_TYPE":"0","GP_ID":"214334068","EPOCH":"2022-10-07T00:00:00.999648","SITE":"AFETR","COUNTRY_CODE":"US","RCS_SIZE":"LARGE","TIME_SYSTEM":"UTC","MEAN_MOTION":"15.08849529","REF_FRAME":"TEME","MEAN_MOTION_DOT":"0.00004091","REV_AT_EPOCH":"1775","OBJECT_ID":"2022-062Z","NORAD_CAT_ID":"52853","TLE_LINE2":"2 52853  53.2142 234.1888 0001940  47.1114 255.3541 15.08849529 17754","INCLINATION":"53.2142","RA_OF_ASC_NODE":"234.1888","MEAN_ELEMENT_THEORY":"SGP4","MEAN_MOTION_DDOT":"0.0000000000000","DECAY_DATE":null,"ARG_OF_PERICENTER":"47.1114","LAUNCH_DATE":"2022-06-17","CENTER_NAME":"EARTH","ELEMENT_SET_NO":"999","APOAPSIS":"541.058"}];
